NORAD_CAT_ID,OBJECT_NAME,OBJECT_TYPE,EPOCH,MEAN_MOTION,ECCENTRICITY,INCLINATION,RA_OF_ASC_NODE,ARG_OF_PERICENTER,MEAN_ANOMALY,BSTAR,MEAN_MOTION_DOT,MEAN_MOTION_DDOT,TLE_LINE0,TLE_LINE1,TLE_LINE2,SEMIMAJOR_AXIS,PERIOD,APOGEE,PERIGEE,DECAYED
52854.0,STARLINK-4204,PAYLOAD,2024-06-19 17:50:49,15.08836108,8.86e-05,53.2181,323.0792,83.2011,276.9081,0.00012642,1.725e-05,0.0,0 STARLINK-4204,1 52854U 22062AA  24171.74363312  .00001725  00000-0  12642-3 0  9993,2 52854  53.2181 323.0792 0000886  83.2011 276.9081 15.08836108111128,6917.892,95.438,540.37,539.144,0.0
52854.0,STARLINK-4204,PAYLOAD,2024-06-20 14:30:50,15.08844382,9.67e-05,53.2173,319.2136,94.4813,265.629,-6.9152e-06,-3.98e-06,0.0,0 STARLINK-4204,1 52854U 22062AA  24172.60475303 -.00000398  00000-0 -69152-5 0  9990,2 52854  53.2173 319.2136 0000967  94.4813 265.6290 15.08844382111256,6917.867,95.437,540.401,539.063,0.0
52854.0,STARLINK-4204,PAYLOAD,2024-06-20 16:06:13,15.08845009,9.76e-05,53.2174,318.9163,93.6986,266.4118,-1.2283e-06,-3.07e-06,0.0,0 STARLINK-4204,1 52854U 22062AA  24172.67099232 -.00000307  00000-0 -12283-5 0  9993,2 52854  53.2174 318.9163 0000976  93.6986 266.4118 15.08845009111755,6917.865,95.437,540.405,539.055,0.0
52854.0,STARLINK-4204,PAYLOAD,2024-06-21 14:21:37,15.08840459,0.0001286,53.219,314.7551,79.7888,280.3249,9.1849e-05,1.174e-05,0.0,0 STARLINK-4204,1 52854U 22062AA  24173.59835438  .00001174  00000-0  91849-4 0  9996,2 52854  53.2190 314.7551 0001286  79.7888 280.3249 15.08840459111405,6917.879,95.438,540.634,538.854,0.0
52854.0,STARLINK-4204,PAYLOAD,2024-06-21 15:57:00,15.08842708,0.0001165,53.2181,314.4574,75.1967,284.9154,9.2588e-05,1.186e-05,0.0,0 STARLINK-4204,1 52854U 22062AA  24173.66459265  .00001186  00000-0  92588-4 0  9998,2 52854  53.2181 314.4574 0001165  75.1967 284.9154 15.08842708111416,6917.872,95.437,540.543,538.931,0.0
52854.0,STARLINK-4204,PAYLOAD,2024-06-22 12:37:01,15.08840634,0.0001239,53.2177,310.592,72.2755,287.8373,7.4354e-05,8.96e-06,0.0,0 STARLINK-4204,1 52854U 22062AA  24174.52571455  .00000896  00000-0  74354-4 0  9998,2 52854  53.2177 310.5920 0001239  72.2755 287.8373 15.08840634112038,6917.878,95.438,540.601,538.886,0.0
52854.0,STARLINK-4204,PAYLOAD,2024-06-22 14:12:24,15.08840101,0.0001186,53.2177,310.2945,72.9572,287.155,6.9874e-05,8.24e-06,0.0,0 STARLINK-4204,1 52854U 22062AA  24174.59195487  .00000824  00000-0  69874-4 0  9994,2 52854  53.2177 310.2945 0001186  72.9572 287.1550 15.08840101111552,6917.88,95.438,540.566,538.925,0.0
52854.0,STARLINK-4204,PAYLOAD,2024-06-22 15:47:47,15.08842081,0.0001256,53.2188,309.9972,93.5936,266.52,7.3103e-05,8.76e-06,0.0,0 STARLINK-4204,1 52854U 22062AA  24174.65819288  .00000876  00000-0  73103-4 0  9990,2 52854  53.2188 309.9972 0001256  93.5936 266.5200 15.08842081111563,6917.874,95.437,540.608,538.87,0.0
52854.0,STARLINK-4204,PAYLOAD,2024-06-23 14:03:11,15.08841918,0.0001374,53.2192,305.8351,103.0657,257.0488,6.1785e-05,6.96e-06,0.0,0 STARLINK-4204,1 52854U 22062AA  24175.58555255  .00000696  00000-0  61785-4 0  9997,2 52854  53.2192 305.8351 0001374 103.0657 257.0488 15.08841918111709,6917.875,95.437,540.69,538.789,0.0
52854.0,STARLINK-4204,PAYLOAD,2024-06-24 13:53:58,15.08842812,0.000127,53.2185,301.3718,94.6662,265.4475,5.4515e-05,5.8e-06,0.0,0 STARLINK-4204,1 52854U 22062AA  24176.57915118  .00000580  00000-0  54515-4 0  9990,2 52854  53.2185 301.3718 0001270  94.6662 265.4475 15.08842812111854,6917.872,95.437,540.615,538.858,0.0
52854.0,STARLINK-4204,PAYLOAD,2024-06-25 12:09:23,15.08837237,0.0001293,53.2187,297.2086,88.7182,271.3958,-2.9681e-06,-3.35e-06,0.0,0 STARLINK-4204,1 52854U 22062AA  24177.50651783 -.00000335  00000-0 -29681-5 0  9996,2 52854  53.2187 297.2086 0001293  88.7182 271.3958 15.08837237112480,6917.889,95.438,540.648,538.859,0.0
52854.0,STARLINK-4204,PAYLOAD,2024-06-25 13:44:46,15.08838268,0.0001297,53.2184,296.9111,87.8735,272.2405,5.0085e-06,-2.08e-06,0.0,0 STARLINK-4204,1 52854U 22062AA  24177.57275696 -.00000208  00000-0  50085-5 0  9998,2 52854  53.2184 296.9111 0001297  87.8735 272.2405 15.08838268112000,6917.886,95.438,540.648,538.853,0.0
52854.0,STARLINK-4204,PAYLOAD,2024-06-25 16:55:32,15.08842946,0.000133,53.2188,296.3162,88.5709,271.5435,4.0947e-05,3.64e-06,0.0,0 STARLINK-4204,1 52854U 22062AA  24177.70523284  .00000364  00000-0  40947-4 0  9999,2 52854  53.2188 296.3162 0001330  88.5709 271.5435 15.08842946112026,6917.871,95.437,540.656,538.816,0.0
52854.0,STARLINK-4204,PAYLOAD,2024-06-26 12:00:09,15.08842647,0.0001329,53.2184,292.7477,90.6796,269.4349,6.3015e-05,7.15e-06,0.0,0 STARLINK-4204,1 52854U 22062AA  24178.50011147  .00000715  00000-0  63015-4 0  9999,2 52854  53.2184 292.7477 0001329  90.6796 269.4349 15.08842647112140,6917.872,95.437,540.657,538.818,0.0
52854.0,STARLINK-4204,PAYLOAD,2024-06-27 13:26:20,15.08841308,0.0001178,53.218,287.9913,85.0735,275.0392,7.8368e-06,-1.63e-06,0.0,0 STARLINK-4204,1 52854U 22062AA  24179.55995579 -.00000163  00000-0  78368-5 0  9991,2 52854  53.2180 287.9913 0001178  85.0735 275.0392 15.08841308112795,6917.876,95.437,540.556,538.926,0.0
52854.0,STARLINK-4204,PAYLOAD,2024-06-27 15:01:43,15.08844159,0.0001281,53.2179,287.6934,83.6678,276.446,3.7896e-05,3.15e-06,0.0,0 STARLINK-4204,1 52854U 22062AA  24179.62619309  .00000315  00000-0  37896-4 0  9991,2 52854  53.2179 287.6934 0001281  83.6678 276.4460 15.08844159112314,6917.868,95.437,540.619,538.846,0.0
52854.0,STARLINK-4204,PAYLOAD,2024-06-28 13:17:06,15.08845743,9.97e-05,53.2161,283.5292,91.5317,268.5789,9.5928e-05,1.239e-05,0.0,0 STARLINK-4204,1 52854U 22062AA  24180.55354792  .00001239  00000-0  95928-4 0  9993,2 52854  53.2161 283.5292 0000997  91.5317 268.5789 15.08845743112459,6917.863,95.437,540.418,539.038,0.0
52854.0,STARLINK-4204,PAYLOAD,2024-06-29 13:07:53,15.08846271,0.0001428,53.2175,279.0702,82.1584,277.957,7.0663e-05,8.37e-06,0.0,0 STARLINK-4204,1 52854U 22062AA  24181.54714673  .00000837  00000-0  70663-4 0  9993,2 52854  53.2175 279.0702 0001428  82.1584 277.9570 15.08846271112608,6917.861,95.437,540.714,538.738,0.0
52854.0,STARLINK-4204,PAYLOAD,2024-06-30 12:58:41,15.08838018,0.0001298,53.2169,274.6077,76.2178,283.8959,-0.00016175,-2.861e-05,0.0,0 STARLINK-4204,1 52854U 22062AA  24182.54076180 -.00002861  00000-0 -16175-3 0  9996,2 52854  53.2169 274.6077 0001298  76.2178 283.8959 15.08838018113243,6917.886,95.438,540.649,538.854,0.0
52854.0,STARLINK-4204,PAYLOAD,2024-07-01 12:49:28,15.08844138,0.0001399,53.216,270.1466,75.6081,284.5067,0.00011075,1.475e-05,0.0,0 STARLINK-4204,1 52854U 22062AA  24183.53435312  .00001475  00000-0  11075-3 0  9994,2 52854  53.2160 270.1466 0001399  75.6081 284.5067 15.08844138113399,6917.868,95.437,540.701,538.765,0.0
52854.0,STARLINK-4204,PAYLOAD,2024-07-01 22:21:47,15.08841742,0.0001287,53.2167,268.3664,73.6367,286.4767,1.0773e-05,-1.16e-06,0.0,0 STARLINK-4204,1 52854U 22062AA  24183.93179678 -.00000116  00000-0  10773-4 0  9995,2 52854  53.2167 268.3664 0001287  73.6367 286.4767 15.08841742112964,6917.875,95.437,540.63,538.85,0.0
52854.0,STARLINK-4204,PAYLOAD,2024-07-02 04:43:20,15.08828628,0.0001294,53.2163,267.1791,73.6873,286.4261,0.00015989,2.257e-05,0.0,0 STARLINK-4204,1 52854U 22062AA  24184.19676457  .00002257  00000-0  15989-3 0  9991,2 52854  53.2163 267.1791 0001294  73.6873 286.4261 15.08828628113494,6917.915,95.438,540.675,538.885,0.0
52854.0,STARLINK-4204,PAYLOAD,2024-07-02 12:40:16,15.08833232,0.0001407,53.2179,265.6911,90.2228,269.8926,9.4008e-05,1.208e-05,0.0,0 STARLINK-4204,1 52854U 22062AA  24184.52796474  .00001208  00000-0  94008-4 0  9995,2 52854  53.2179 265.6911 0001407  90.2228 269.8926 15.08833232113055,6917.901,95.438,540.739,538.793,0.0
52854.0,STARLINK-4204,PAYLOAD,2024-07-03 12:31:04,15.08829853,0.0001126,53.2158,261.2298,85.3582,274.7539,-6.2224e-05,-1.278e-05,0.0,0 STARLINK-4204,1 52854U 22062AA  24185.52157893 -.00001278  00000-0 -62224-4 0  9996,2 52854  53.2158 261.2298 0001126  85.3582 274.7539 15.08829853113697,6917.911,95.438,540.555,538.997,0.0
52854.0,STARLINK-4204,PAYLOAD,2024-07-03 22:03:22,15.08837393,0.0001138,53.2147,259.4454,91.5776,268.5347,2.6018e-05,1.26e-06,0.0,0 STARLINK-4204,1 52854U 22062AA  24185.91901244  .00000126  00000-0  26018-4 0  9996,2 52854  53.2147 259.4454 0001138  91.5776 268.5347 15.08837393113264,6917.888,95.438,540.541,538.966,0.0
52854.0,STARLINK-4204,PAYLOAD,2024-07-04 12:21:50,15.08841438,0.0001373,53.2155,256.7694,100.3154,259.7993,0.00026957,4.005e-05,0.0,0 STARLINK-4204,1 52854U 22062AA  24186.51516386  .00004005  00000-0  26957-3 0  9993,2 52854  53.2155 256.7694 0001373 100.3154 259.7993 15.08841438113847,6917.876,95.437,540.691,538.791,0.0
52854.0,STARLINK-4204,PAYLOAD,2024-07-04 21:54:08,15.08847801,0.000114,53.2157,254.9835,91.1022,269.0101,0.00014689,2.051e-05,0.0,0 STARLINK-4204,1 52854U 22062AA  24186.91260142  .00002051  00000-0  14689-3 0  9991,2 52854  53.2157 254.9835 0001140  91.1022 269.0101 15.08847801113417,6917.857,95.437,540.51,538.933,0.0
52854.0,STARLINK-4204,PAYLOAD,2024-07-05 12:12:36,15.08848786,0.0001196,53.216,252.307,100.794,259.3186,0.00017513,2.501e-05,0.0,0 STARLINK-4204,1 52854U 22062AA  24187.50875968  .00002501  00000-0  17513-3 0  9994,2 52854  53.2160 252.3070 0001196 100.7940 259.3186 15.08848786113509,6917.854,95.437,540.546,538.891,0.0
52854.0,STARLINK-4204,PAYLOAD,2024-07-05 21:44:55,15.08843716,9.31e-05,53.2137,250.5221,110.0113,250.0979,0.00012374,1.682e-05,0.0,0 STARLINK-4204,1 52854U 22062AA  24187.90620176  .00001682  00000-0  12374-3 0  9996,2 52854  53.2137 250.5221 0000931 110.0113 250.0979 15.08843716113565,6917.869,95.437,540.378,539.09,0.0
52854.0,STARLINK-4204,PAYLOAD,2024-07-06 10:28:01,15.08845949,0.0001495,53.2165,248.1427,130.0341,230.0783,-0.00012715,-2.311e-05,0.0,0 STARLINK-4204,1 52854U 22062AA  24188.43612670 -.00002311  00000-0 -12715-3 0  9996,2 52854  53.2165 248.1427 0001495 130.0341 230.0783 15.08845949114133,6917.862,95.437,540.761,538.693,0.0
